IRIDIUM 116             
1 43072U 17083C   26005.16596241  .00000165  00000+0  52013-4 0  9998
2 43072  86.3948  30.1344 0002412  84.5618 275.5853 14.34217161420801
IRIDIUM 130             
1 43073U 17083D   26005.13424997  .00000048  00000+0  10121-4 0  9998
2 43073  86.3956  30.4070 0002535  90.1382 270.0105 14.34218012420746
IRIDIUM 151             
1 43074U 17083E   26005.10887741  .00000076  00000+0  20205-4 0  9991
2 43074  86.3952  30.2125 0002150  90.8247 269.3195 14.34218496420760
IRIDIUM 134             
1 43075U 17083F   26005.14693468  .00000230  00000+0  75164-4 0  9993
2 43075  86.3953  30.2022 0002385  92.3492 267.7977 14.34218193420738
IRIDIUM 137             
1 43076U 17083G   26005.29915730  .00000075  00000+0  19624-4 0  9995
2 43076  86.3955  30.2280 0002184  77.8070 282.3371 14.34217383420825
IRIDIUM 141             
1 43077U 17083H   26005.29281360  .00000278  00000+0  92115-4 0  9992
2 43077  86.3949  30.0702 0002090  96.0958 264.0476 14.34216006420824
IRIDIUM 153             
1 43078U 17083J   26005.03568705  .00000133  00000+0  40590-4 0  9996
2 43078  86.3969 358.6710 0002115  97.2718 262.8718 14.34217448421894
IRIDIUM 131             
1 43079U 17083K   26005.14059104  .00000105  00000+0  30395-4 0  9998
2 43079  86.3956  30.3093 0002136  92.9505 267.1935 14.34218405420733
